NORAD_CAT_ID,OBJECT_NAME,OBJECT_TYPE,EPOCH,MEAN_MOTION,ECCENTRICITY,INCLINATION,RA_OF_ASC_NODE,ARG_OF_PERICENTER,MEAN_ANOMALY,BSTAR,MEAN_MOTION_DOT,MEAN_MOTION_DDOT,TLE_LINE0,TLE_LINE1,TLE_LINE2,SEMIMAJOR_AXIS,PERIOD,APOGEE,PERIGEE,DECAYED
55949.0,STARLINK-5899,PAYLOAD,2023-05-29 22:22:45,15.69929491,0.0002932,69.9972,335.3558,263.6687,96.4175,1.5389e-05,1.638e-05,0.0,0 STARLINK-5899,1 55949U 23037AM  23149.93246958  .00001638  00000-0  15389-4 0  9990,2 55949  69.9972 335.3558 0002932 263.6687  96.4175 15.69929491 12013,6737.236,91.724,361.076,357.125,0.0
55949.0,STARLINK-5899,PAYLOAD,2023-05-30 06:01:31,15.69917902,0.0003216,69.9969,334.4598,268.5411,91.5416,1.8321e-05,1.99e-05,0.0,0 STARLINK-5899,1 55949U 23037AM  23150.25105840  .00001990  00000-0  18321-4 0  9991,2 55949  69.9969 334.4598 0003216 268.5411  91.5416 15.69917902 12061,6737.269,91.725,361.301,356.967,0.0
55949.0,STARLINK-5899,PAYLOAD,2023-05-30 12:08:31,15.69928494,0.0003084,69.9974,333.743,266.6585,93.4258,7.7868e-06,7.24e-06,0.0,0 STARLINK-5899,1 55949U 23037AM  23150.50592021  .00000724  00000-0  77868-5 0  9996,2 55949  69.9974 333.7430 0003084 266.6585  93.4258 15.69928494 11767,6737.239,91.724,361.181,357.026,0.0
55949.0,STARLINK-5899,PAYLOAD,2023-05-30 15:12:01,15.6992923,0.0002998,69.9979,333.3847,265.7378,94.3475,9.4463e-06,9.24e-06,0.0,0 STARLINK-5899,1 55949U 23037AM  23150.63335286  .00000924  00000-0  94463-5 0  9990,2 55949  69.9979 333.3847 0002998 265.7378  94.3475 15.69929230 12124,6737.236,91.724,361.121,357.082,0.0
55949.0,STARLINK-5899,PAYLOAD,2023-05-30 19:47:16,15.69930191,0.0003021,69.9981,332.8473,266.4727,93.6123,1.1593e-05,1.182e-05,0.0,0 STARLINK-5899,1 55949U 23037AM  23150.82450168  .00001182  00000-0  11593-4 0  9997,2 55949  69.9981 332.8473 0003021 266.4727  93.6123 15.69930191 11815,6737.234,91.724,361.134,357.063,0.0
55949.0,STARLINK-5899,PAYLOAD,2023-05-31 11:04:48,15.69922869,0.0003191,69.9981,331.0565,270.4711,89.6119,1.0964e-05,1.106e-05,0.0,0 STARLINK-5899,1 55949U 23037AM  23151.46167517  .00001106  00000-0  10964-4 0  9998,2 55949  69.9981 331.0565 0003191 270.4711  89.6119 15.69922869 12256,6737.255,91.724,361.27,356.97,0.0
55949.0,STARLINK-5899,PAYLOAD,2023-05-31 14:08:18,15.69924874,0.0003193,69.9982,330.6981,270.1912,89.8918,1.2237e-05,1.259e-05,0.0,0 STARLINK-5899,1 55949U 23037AM  23151.58910713  .00001259  00000-0  12237-4 0  9999,2 55949  69.9982 330.6981 0003193 270.1912  89.8918 15.69924874 11937,6737.249,91.724,361.265,356.963,0.0
55949.0,STARLINK-5899,PAYLOAD,2023-05-31 18:43:33,15.69935684,0.0003332,69.9979,330.1611,263.0116,97.07,2.3264e-05,2.587e-05,0.0,0 STARLINK-5899,1 55949U 23037AM  23151.78024799  .00002587  00000-0  23264-4 0  9998,2 55949  69.9979 330.1611 0003332 263.0116  97.0700 15.69935684 12303,6737.218,91.724,361.328,356.838,0.0
55949.0,STARLINK-5899,PAYLOAD,2023-05-31 21:47:04,15.69918697,0.0003224,69.9984,329.8018,272.0469,88.0357,-1.1617e-05,-1.609e-05,0.0,0 STARLINK-5899,1 55949U 23037AM  23151.90769126 -.00001609  00000-0 -11617-4 0  9997,2 55949  69.9984 329.8018 0003224 272.0469  88.0357 15.69918697 11982,6737.267,91.724,361.304,356.96,0.0
55949.0,STARLINK-5899,PAYLOAD,2023-06-01 05:25:50,15.69915703,0.0003117,69.9991,328.9058,273.2292,86.8547,-8.2329e-06,-1.202e-05,0.0,0 STARLINK-5899,1 55949U 23037AM  23152.22627779 -.00001202  00000-0 -82329-5 0  9998,2 55949  69.9991 328.9058 0003117 273.2292  86.8547 15.69915703 12031,6737.275,91.725,361.24,357.04,0.0
55949.0,STARLINK-5899,PAYLOAD,2023-06-01 14:36:21,15.6991271,0.0003574,69.9985,327.8304,269.6265,90.4521,-1.4862e-05,-1.999e-05,0.0,0 STARLINK-5899,1 55949U 23037AM  23152.60858009 -.00001999  00000-0 -14862-4 0  9991,2 55949  69.9985 327.8304 0003574 269.6265  90.4521 15.69912710 12434,6737.284,91.725,361.557,356.741,0.0
55949.0,STARLINK-5899,PAYLOAD,2023-06-02 13:32:37,15.69928875,0.0003779,69.9997,325.1445,269.1939,90.8824,1.9549e-05,2.139e-05,0.0,0 STARLINK-5899,1 55949U 23037AM  23153.56432354  .00002139  00000-0  19549-4 0  9990,2 55949  69.9997 325.1445 0003779 269.1939  90.8824 15.69928875 12242,6737.237,91.724,361.648,356.556,0.0
55949.0,STARLINK-5899,PAYLOAD,2023-06-02 18:07:52,15.69931548,0.0004144,69.9979,324.6043,274.863,85.2092,1.1793e-05,1.206e-05,0.0,0 STARLINK-5899,1 55949U 23037AM  23153.75547201  .00001206  00000-0  11793-4 0  9996,2 55949  69.9979 324.6043 0004144 274.8630  85.2092 15.69931548 12615,6737.23,91.724,361.887,356.303,0.0
55949.0,STARLINK-5899,PAYLOAD,2023-06-02 21:11:23,15.69931206,0.0004185,69.9974,324.2456,275.0571,85.0147,1.1311e-05,1.148e-05,0.0,0 STARLINK-5899,1 55949U 23037AM  23153.88290519  .00001148  00000-0  11311-4 0  9998,2 55949  69.9974 324.2456 0004185 275.0571  85.0147 15.69931206 12290,6737.231,91.724,361.915,356.276,0.0
55949.0,STARLINK-5899,PAYLOAD,2023-06-03 10:57:09,15.69915387,0.0003895,69.998,322.6358,270.2532,89.8217,2.1597e-05,2.384e-05,0.0,0 STARLINK-5899,1 55949U 23037AM  23154.45636460  .00002384  00000-0  21597-4 0  9991,2 55949  69.9980 322.6358 0003895 270.2532  89.8217 15.69915387 12721,6737.276,91.725,361.765,356.517,0.0
55949.0,STARLINK-5899,PAYLOAD,2023-06-03 14:00:39,15.69921024,0.0003741,69.9971,322.2772,269.3443,90.7324,2.5506e-05,2.855e-05,0.0,0 STARLINK-5899,1 55949U 23037AM  23154.58379337  .00002855  00000-0  25506-4 0  9999,2 55949  69.9971 322.2772 0003741 269.3443  90.7324 15.69921024 12407,6737.26,91.724,361.645,356.605,0.0
55949.0,STARLINK-5899,PAYLOAD,2023-06-03 18:35:55,15.69924561,0.0003548,69.9977,321.7398,268.6938,91.3852,3.1155e-05,3.535e-05,0.0,0 STARLINK-5899,1 55949U 23037AM  23154.77494328  .00003535  00000-0  31155-4 0  9991,2 55949  69.9977 321.7398 0003548 268.6938  91.3852 15.69924561 12779,6737.25,91.724,361.505,356.724,0.0
55949.0,STARLINK-5899,PAYLOAD,2023-06-03 20:07:39,15.69929819,0.0003741,69.9979,321.5607,269.4739,90.6028,2.7409e-05,3.085e-05,0.0,0 STARLINK-5899,1 55949U 23037AM  23154.83865575  .00003085  00000-0  27409-4 0  9991,2 55949  69.9979 321.5607 0003741 269.4739  90.6028 15.69929819 12447,6737.235,91.724,361.62,356.579,0.0
55949.0,STARLINK-5899,PAYLOAD,2023-06-04 14:28:42,15.6992453,0.000356,69.9982,319.4109,267.6622,92.4166,-1.2575e-06,-3.64e-06,0.0,0 STARLINK-5899,1 55949U 23037AM  23155.60326398 -.00000364  00000-0 -12575-5 0  9990,2 55949  69.9982 319.4109 0003560 267.6622  92.4166 15.69924530 12565,6737.25,91.724,361.513,356.716,0.0
55949.0,STARLINK-5899,PAYLOAD,2023-06-04 19:03:57,15.69923339,0.0003788,69.9981,318.8733,269.7645,90.3117,3.3971e-06,1.95e-06,0.0,0 STARLINK-5899,1 55949U 23037AM  23155.79441384  .00000195  00000-0  33971-5 0  9996,2 55949  69.9981 318.8733 0003788 269.7645  90.3117 15.69923339 12930,6737.253,91.724,361.67,356.566,0.0
55949.0,STARLINK-5899,PAYLOAD,2023-06-04 20:35:41,15.699338,0.0003713,69.9982,318.6951,268.3571,91.7199,1.6188e-05,1.735e-05,0.0,0 STARLINK-5899,1 55949U 23037AM  23155.85812130  .00001735  00000-0  16188-4 0  9995,2 55949  69.9982 318.6951 0003713 268.3571  91.7199 15.69933800 12605,6737.223,91.724,361.59,356.587,0.0
55949.0,STARLINK-5899,PAYLOAD,2023-06-05 13:24:58,15.69924592,0.0003823,69.9982,316.7243,270.0639,90.0119,6.8577e-06,6.12e-06,0.0,0 STARLINK-5899,1 55949U 23037AM  23156.55901270  .00000612  00000-0  68577-5 0  9990,2 55949  69.9982 316.7243 0003823 270.0639  90.0119 15.69924592 12719,6737.25,91.724,361.69,356.539,0.0
55949.0,STARLINK-5899,PAYLOAD,2023-06-05 19:31:58,15.69931077,0.0003768,69.9983,316.0072,267.6378,92.4386,7.9042e-06,7.38e-06,0.0,0 STARLINK-5899,1 55949U 23037AM  23156.81387481  .00000738  00000-0  79042-5 0  9999,2 55949  69.9983 316.0072 0003768 267.6378  92.4386 15.69931077 12755,6737.231,91.724,361.635,356.558,0.0
55949.0,STARLINK-5899,PAYLOAD,2023-06-06 13:53:01,15.69918707,0.0003832,69.998,313.8574,269.1224,90.9532,1.1515e-05,1.172e-05,0.0,0 STARLINK-5899,1 55949U 23037AM  23157.57848388  .00001172  00000-0  11515-4 0  9994,2 55949  69.9980 313.8574 0003832 269.1224  90.9532 15.69918707 13216,6737.267,91.724,361.713,356.55,0.0
55949.0,STARLINK-5899,PAYLOAD,2023-06-06 20:00:00,15.69931301,0.0003846,69.9975,313.1413,272.3477,87.7279,1.6744e-05,1.801e-05,0.0,0 STARLINK-5899,1 55949U 23037AM  23157.83334248  .00001801  00000-0  16744-4 0  9996,2 55949  69.9975 313.1413 0003846 272.3477  87.7279 15.69931301 12919,6737.231,91.724,361.687,356.504,0.0
55949.0,STARLINK-5899,PAYLOAD,2023-06-06 23:03:31,15.69928583,0.0003838,69.9993,312.7827,272.0113,88.0643,1.4639e-05,1.548e-05,0.0,0 STARLINK-5899,1 55949U 23037AM  23157.96077768  .00001548  00000-0  14639-4 0  9990,2 55949  69.9993 312.7827 0003838 272.0113  88.0643 15.69928583 13275,6737.238,91.724,361.689,356.518,0.0
55949.0,STARLINK-5899,PAYLOAD,2023-06-07 03:38:47,15.69917829,0.0003596,70.0,312.2452,267.3652,92.7132,9.158e-06,8.88e-06,0.0,0 STARLINK-5899,1 55949U 23037AM  23158.15193435  .00000888  00000-0  91580-5 0  9999,2 55949  70.0000 312.2452 0003596 267.3652  92.7132 15.69917829 13302,6737.269,91.725,361.557,356.711,0.0
55949.0,STARLINK-5899,PAYLOAD,2023-06-07 18:56:16,15.69942013,0.0005087,69.999,310.4532,249.6477,110.4173,3.9465e-05,4.54e-05,0.0,0 STARLINK-5899,1 55949U 23037AM  23158.78908378  .00004540  00000-0  39465-4 0  9990,2 55949  69.9990 310.4532 0005087 249.6477 110.4173 15.69942013 13060,6737.2,91.723,362.492,355.638,0.0
55949.0,STARLINK-5899,PAYLOAD,2023-06-08 11:45:34,15.69924024,0.0003981,69.9995,308.4827,268.4917,91.5823,-4.4065e-07,-2.66e-06,0.0,0 STARLINK-5899,1 55949U 23037AM  23159.48998059 -.00000266  00000-0 -44065-6 0  9990,2 55949  69.9995 308.4827 0003981 268.4917  91.5823 15.69924024 13173,6737.251,91.724,361.798,356.434,0.0
55949.0,STARLINK-5899,PAYLOAD,2023-06-08 13:17:19,15.69926502,0.0003931,69.9972,308.3029,272.1508,87.9237,5.419e-06,4.39e-06,0.0,0 STARLINK-5899,1 55949U 23037AM  23159.55369857  .00000439  00000-0  54190-5 0  9995,2 55949  69.9972 308.3029 0003931 272.1508  87.9237 15.69926502 13524,6737.244,91.724,361.758,356.461,0.0
